{
  "type": "FeatureCollection",
  "features": [
    {
      "type": "Feature",
      "properties": {
        "norad_id": 32152,
        "name": "FENGYUN 1C DEB",
        "group": "fengyun-1c-debris",
        "lat": 9.712768470012191,
        "lon": 143.08975368351756,
        "alt_km": 742.176155259097,
        "timestamp": "2025-12-09T14:52:26.447490+00:00",
        "meta_object_name": "FENGYUN 1C DEB",
        "meta_object_id": "1999-025CSW",
        "meta_epoch": "2025-12-08T17:23:47.343264",
        "meta_mean_motion": 14.56605031,
        "meta_eccentricity": 0.00551964,
        "meta_inclination": 98.761,
        "meta_ra_of_asc_node": 143.6623,
        "meta_arg_of_pericenter": 213.6072,
        "meta_mean_anomaly": 146.162,
        "meta_ephemeris_type": 0,
        "meta_classification_type": "U",
        "meta_norad_cat_id": 32152,
        "meta_element_set_no": 999,
        "meta_rev_at_epoch": 62554,
        "meta_bstar": 0.0029018103,
        "meta_mean_motion_dot": 0.00013176,
        "meta_mean_motion_ddot": 0,
        "tle_line1": "1 32152U 99025CSW 25342.72485351  .00013176  00000+0  29018-2 0  9998",
        "tle_line2": "2 32152  98.7610 143.6623 0055196 213.6072 146.1620 14.56605031625541"
      },
      "geometry": {
        "type": "Point",
        "coordinates": [
          143.08975368351756,
          9.712768470012191
        ]
      }
    },
    {
      "type": "Feature",
      "properties": {
        "norad_id": 32153,
        "name": "FENGYUN 1C DEB",
        "group": "fengyun-1c-debris",
        "lat": 66.68203184560227,
        "lon": 165.44738818617589,
        "alt_km": 863.3547379746888,
        "timestamp": "2025-12-09T14:52:26.447501+00:00",
        "meta_object_name": "FENGYUN 1C DEB",
        "meta_object_id": "1999-025CSX",
        "meta_epoch": "2025-12-08T07:03:10.270368",
        "meta_mean_motion": 14.48698922,
        "meta_eccentricity": 0.0207063,
        "meta_inclination": 98.7675,
        "meta_ra_of_asc_node": 185.0499,
        "meta_arg_of_pericenter": 234.7199,
        "meta_mean_anomaly": 123.4469,
        "meta_ephemeris_type": 0,
        "meta_classification_type": "U",
        "meta_norad_cat_id": 32153,
        "meta_element_set_no": 999,
        "meta_rev_at_epoch": 97159,
        "meta_bstar": 0.00055146558,
        "meta_mean_motion_dot": 2.668e-05,
        "meta_mean_motion_ddot": 0,
        "tle_line1": "1 32153U 99025CSX 25342.29386887  .00002668  00000+0  55147-3 0  9992",
        "tle_line2": "2 32153  98.7675 185.0499 0207063 234.7199 123.4469 14.48698922971590"
      },
      "geometry": {
        "type": "Point",
        "coordinates": [
          165.44738818617589,
          66.68203184560227
        ]
      }
    },
    {
      "type": "Feature",
      "properties": {
        "norad_id": 32155,
        "name": "FENGYUN 1C DEB",
        "group": "fengyun-1c-debris",
        "lat": -46.242605349905496,
        "lon": 83.65542161128488,
        "alt_km": 742.7678998593119,
        "timestamp": "2025-12-09T14:52:26.447511+00:00",
        "meta_object_name": "FENGYUN 1C DEB",
        "meta_object_id": "1999-025CSZ",
        "meta_epoch": "2025-12-04T13:09:10.027872",
        "meta_mean_motion": 14.32912866,
        "meta_eccentricity": 0.0069286,
        "meta_inclination": 98.9526,
        "meta_ra_of_asc_node": 267.8922,
        "meta_arg_of_pericenter": 264.2615,
        "meta_mean_anomaly": 95.0665,
        "meta_ephemeris_type": 0,
        "meta_classification_type": "U",
        "meta_norad_cat_id": 32155,
        "meta_element_set_no": 999,
        "meta_rev_at_epoch": 70105,
        "meta_bstar": 0.001161,
        "meta_mean_motion_dot": 3.211e-05,
        "meta_mean_motion_ddot": 0,
        "tle_line1": "1 32155U 99025CSZ 25338.54803273  .00003211  00000+0  11610-2 0  9991",
        "tle_line2": "2 32155  98.9526 267.8922 0069286 264.2615  95.0665 14.32912866701056"
      },
      "geometry": {
        "type": "Point",
        "coordinates": [
          83.65542161128488,
          -46.242605349905496
        ]
      }
    },
    {
      "type": "Feature",
      "properties": {
        "norad_id": 32156,
        "name": "FENGYUN 1C DEB",
        "group": "fengyun-1c-debris",
        "lat": -64.18543622904258,
        "lon": -46.97351720036547,
        "alt_km": 851.358903925785,
        "timestamp": "2025-12-09T14:52:26.447521+00:00",
        "meta_object_name": "FENGYUN 1C DEB",
        "meta_object_id": "1999-025CTA",
        "meta_epoch": "2025-12-08T07:32:53.302848",
        "meta_mean_motion": 14.31940306,
        "meta_eccentricity": 0.00822984,
        "meta_inclination": 99.3543,
        "meta_ra_of_asc_node": 151.5435,
        "meta_arg_of_pericenter": 70.1457,
        "meta_mean_anomaly": 290.8571,
        "meta_ephemeris_type": 0,
        "meta_classification_type": "U",
        "meta_norad_cat_id": 32156,
        "meta_element_set_no": 999,
        "meta_rev_at_epoch": 64757,
        "meta_bstar": 0.00055080587,
        "meta_mean_motion_dot": 1.483e-05,
        "meta_mean_motion_ddot": 0,
        "tle_line1": "1 32156U 99025CTA 25342.31450582  .00001483  00000+0  55081-3 0  9993",
        "tle_line2": "2 32156  99.3543 151.5435 0082298  70.1457 290.8571 14.31940306647571"
      },
      "geometry": {
        "type": "Point",
        "coordinates": [
          -46.97351720036547,
          -64.18543622904258
        ]
      }
    },
    {
      "type": "Feature",
      "properties": {
        "norad_id": 32160,
        "name": "FENGYUN 1C DEB",
        "group": "fengyun-1c-debris",
        "lat": -11.258327261608592,
        "lon": 142.46773501707187,
        "alt_km": 715.3869578871208,
        "timestamp": "2025-12-09T14:52:26.447531+00:00",
        "meta_object_name": "FENGYUN 1C DEB",
        "meta_object_id": "1999-025CTE",
        "meta_epoch": "2025-12-08T17:12:37.312128",
        "meta_mean_motion": 14.37552839,
        "meta_eccentricity": 0.00822242,
        "meta_inclination": 98.881,
        "meta_ra_of_asc_node": 139.7521,
        "meta_arg_of_pericenter": 10.7927,
        "meta_mean_anomaly": 349.4999,
        "meta_ephemeris_type": 0,
        "meta_classification_type": "U",
        "meta_norad_cat_id": 32160,
        "meta_element_set_no": 999,
        "meta_rev_at_epoch": 95829,
        "meta_bstar": 0.0007997555,
        "meta_mean_motion_dot": 2.445e-05,
        "meta_mean_motion_ddot": 0,
        "tle_line1": "1 32160U 99025CTE 25342.71709852  .00002445  00000+0  79976-3 0  9997",
        "tle_line2": "2 32160  98.8810 139.7521 0082224  10.7927 349.4999 14.37552839958297"
      },
      "geometry": {
        "type": "Point",
        "coordinates": [
          142.46773501707187,
          -11.258327261608592
        ]
      }
    },
    {
      "type": "Feature",
      "properties": {
        "norad_id": 32161,
        "name": "FENGYUN 1C DEB",
        "group": "fengyun-1c-debris",
        "lat": -6.528849244379495,
        "lon": -92.6670805580649,
        "alt_km": 910.668458102622,
        "timestamp": "2025-12-09T14:52:26.447542+00:00",
        "meta_object_name": "FENGYUN 1C DEB",
        "meta_object_id": "1999-025CTF",
        "meta_epoch": "2025-12-08T12:16:43.883328",
        "meta_mean_motion": 14.01862269,
        "meta_eccentricity": 0.01354176,
        "meta_inclination": 98.8305,
        "meta_ra_of_asc_node": 87.2791,
        "meta_arg_of_pericenter": 291.8401,
        "meta_mean_anomaly": 66.8408,
        "meta_ephemeris_type": 0,
        "meta_classification_type": "U",
        "meta_norad_cat_id": 32161,
        "meta_element_set_no": 999,
        "meta_rev_at_epoch": 63370,
        "meta_bstar": 0.00067399448,
        "meta_mean_motion_dot": 1.067e-05,
        "meta_mean_motion_ddot": 0,
        "tle_line1": "1 32161U 99025CTF 25342.51161902  .00001067  00000+0  67399-3 0  9999",
        "tle_line2": "2 32161  98.8305  87.2791 0135417 291.8401  66.8408 14.01862269633708"
      },
      "geometry": {
        "type": "Point",
        "coordinates": [
          -92.6670805580649,
          -6.528849244379495
        ]
      }
    },
    {
      "type": "Feature",
      "properties": {
        "norad_id": 32162,
        "name": "FENGYUN 1C DEB",
        "group": "fengyun-1c-debris",
        "lat": -68.87787252445828,
        "lon": -177.26150604175987,
        "alt_km": 682.845716022839,
        "timestamp": "2025-12-09T14:52:26.447552+00:00",
        "meta_object_name": "FENGYUN 1C DEB",
        "meta_object_id": "1999-025CTG",
        "meta_epoch": "2025-12-09T02:14:01.110624",
        "meta_mean_motion": 14.61952906,
        "meta_eccentricity": 0.00479287,
        "meta_inclination": 99.4626,
        "meta_ra_of_asc_node": 27.7136,
        "meta_arg_of_pericenter": 181.6641,
        "meta_mean_anomaly": 178.4404,
        "meta_ephemeris_type": 0,
        "meta_classification_type": "U",
        "meta_norad_cat_id": 32162,
        "meta_element_set_no": 999,
        "meta_rev_at_epoch": 94865,
        "meta_bstar": 0.0016371454,
        "meta_mean_motion_dot": 8.282e-05,
        "meta_mean_motion_ddot": 0,
        "tle_line1": "1 32162U 99025CTG 25343.09306841  .00008282  00000+0  16371-2 0  9996",
        "tle_line2": "2 32162  99.4626  27.7136 0047928 181.6641 178.4404 14.61952906948658"
      },
      "geometry": {
        "type": "Point",
        "coordinates": [
          -177.26150604175987,
          -68.87787252445828
        ]
      }
    }
  ]
}